CRE (WAAS/PRN 138)      
1 28868U 05036A   24275.68452037 -.00000074  00000+0  00000+0 0  9991
2 28868   2.7032  84.2792 0002428  80.8711 344.9020  1.00272805 40204
IOR-W (EGNOS/PRN 126)   
1 28899U 05044A   24276.22549635 -.00000257  00000+0  00000+0 0  9999
2 28899   4.3085  42.8089 0002559 173.3717  19.9474  1.00271897 69250
GSAT-8 (GAGAN/PRN 127)  
1 37605U 11022A   24276.26021601  .00000085  00000+0  00000+0 0  9997
2 37605   0.5114  89.7183 0006915 152.6726 277.8359  1.00271638 48999
LUCH 5A (SDCM/PRN 140)  
1 37951U 11074B   24276.28284168 -.00000042  00000+0  00000+0 0  9993
2 37951   7.1566  83.2606 0004439 106.2201  90.7829  1.00271585 46946
SES-5 (EGNOS/PRN 136)   
1 38652U 12036A   24276.33660416  .00000034  00000+0  00000+0 0  9991
2 38652   0.0697 296.0930 0001962 261.3797 300.2377  1.00271102 44824
GSAT-10 (GAGAN/PRN 128) 
1 38779U 12051B   24275.98591049 -.00000166  00000+0  00000+0 0  9990
2 38779   0.0156 148.0895 0002986 109.2221 191.8628  1.00272755 44041
LUCH 5B (SDCM/PRN 125)  
1 38977U 12061A   24275.67631127 -.00000132  00000+0  00000+0 0  9992
2 38977   9.1211  55.7428 0006408 145.0629  37.2543  1.00272914 43351
ASTRA 5B (EGNOS/PRN 123)
1 39617U 14011B   24275.36090800  .00000133  00000+0  00000+0 0  9994
2 39617   0.0852 303.4352 0003679 267.6283 312.9472  1.00271207 38416
LUCH 5V (SDCM/PRN 141)  
1 39727U 14023A   24275.86596071 -.00000268  00000+0  00000+0 0  9995
2 39727   3.5623  75.2107 0003729 155.0917 187.3074  1.00271974 38103
GSAT-15 (GAGAN/PRN 139) 
1 41028U 15065A   24275.86585278 -.00000260  00000+0  00000+0 0  9998
2 41028   0.0203 260.1302 0002222 281.4771 234.6835  1.00271926 32547
E 117 W B (WAAS/PRN 131)
1 41589U 16038B   24276.37136149 -.00000011  00000+0  00000+0 0  9991
2 41589   0.0219  46.2767 0000138 103.5089 238.4951  1.00272329 30462
SES-15 (WAAS/PRN 133)   
1 42709U 17026A   24276.00535752  .00000059  00000+0  00000+0 0  9998
2 42709   0.0418  34.3054 0001047 148.9336  60.7705  1.00272705 27932
QZS-2 (QZSS/PRN 194)    
1 42738U 17028A   24275.80188101 -.00000206  00000+0  00000+0 0  9996
2 42738  40.4091 252.2249 0747037 270.5737 276.7497  1.00256268  1372
QZS-3 (QZSS/PRN 199)    
1 42917U 17048A   24275.89840949 -.00000349  00000+0  00000+0 0  9999
2 42917   0.0605 210.0544 0001736 323.6208 287.9046  1.00275828 26000
QZS-4 (QZSS/PRN 195)    
1 42965U 17062A   24275.53382799 -.00000332  00000+0  00000+0 0  9995
2 42965  40.4641 351.4443 0751817 269.8964  81.6892  1.00273357 25553
BEIDOU-3 G1 (PRN 130)   
1 43683U 18085A   24275.71716135 -.00000279  00000+0  00000+0 0  9994
2 43683   2.4497 105.6774 0002117  37.2661 266.1269  1.00267809 21804
BEIDOU-3 G2 (PRN 144)   
1 45344U 20017A   24275.74459160 -.00000142  00000+0  00000+0 0  9992
2 45344   2.4571  33.3887 0003618 189.7957 135.8791  1.00272322 17008
BEIDOU-3 G3 (PRN 143)   
1 45807U 20040A   24276.31507819 -.00000353  00000+0  00000+0 0  9995
2 45807   0.9777  52.6937 0002793 307.2886 235.5149  1.00276166 15838
GALAXY 30 (WAAS/PRN 135)
1 46114U 20056C   24275.69007769  .00000035  00000+0  00000+0 0  9999
2 46114   0.0222 178.3128 0002259  16.9880 299.0303  1.00269855 15046
QZS-1R (QZSS/PRN 196)   
1 49336U 21096A   24275.88626069 -.00000219  00000+0  00000+0 0  9999
2 49336  36.1647  88.9102 0744873 269.9838 106.4801  1.00286231 10756
